[
  {
    "id": "PE",
    "name": "Per칰",
    "flag": "游왫릖",
    "code": "PE",
    "dial_code": "+51",
    "regex": "^[9][0-9]{8}$",
    "limit": 9,
    "formatExample": "999 999 999",
    "formatPattern": "### ### ###"
  },
  {
    "id": "UY",
    "name": "Uruguay",
    "flag": "游쥟릖",
    "code": "UY",
    "dial_code": "+598",
    "regex": "^[0-9]{8,12}$",
    "limit": 12,
    "formatExample": "099 123 456",
    "formatPattern": "### ### ###"
  },
  {
    "id": "AR",
    "name": "Argentina",
    "flag": "游뷣릖",
    "code": "AR",
    "dial_code": "+54",
    "regex": "^[1-9][0-9]{9,10}$",
    "limit": 11,
    "formatExample": "11 2345 6789",
    "formatPattern": "## #### ####"
  },
  {
    "id": "US",
    "name": "Estados Unidos",
    "flag": "游쥟릖",
    "code": "US",
    "dial_code": "+1",
    "regex": "^[2-9][0-9]{2}[2-9][0-9]{6}$",
    "limit": 10,
    "formatExample": "123 456 7890",
    "formatPattern": "### ### ####"
  },
  {
    "id": "MX",
    "name": "M칠xico",
    "flag": "游쓇릖",
    "code": "MX",
    "dial_code": "+52",
    "regex": "^[1-9][0-9]{9,10}$",
    "limit": 10,
    "formatExample": "55 1234 5678",
    "formatPattern": "## #### ####"
  },
  {
    "id": "KR",
    "name": "Corea del Sur",
    "flag": "游썷릖",
    "code": "KR",
    "dial_code": "+82",
    "regex": "^01[0-9]{8,9}$",
    "limit": 11,
    "formatExample": "010 1234 5678",
    "formatPattern": "### #### ####"
  },
  {
    "id": "RU",
    "name": "Rusia",
    "flag": "游游",
    "code": "RU",
    "dial_code": "+7",
    "regex": "^9[0-9]{9}$",
    "limit": 10,
    "formatExample": "912 345 6789",
    "formatPattern": "### ### ####"
  },
  {
    "id": "ZA",
    "name": "Sud치frica",
    "flag": "游游",
    "code": "ZA",
    "dial_code": "+27",
    "regex": "^[6-8][0-9]{8}$",
    "limit": 9,
    "formatExample": "712 345 678",
    "formatPattern": "### ### ###"
  },
  {
    "id": "NG",
    "name": "Nigeria",
    "flag": "游游",
    "code": "NG",
    "dial_code": "+234",
    "regex": "^[789][01][0-9]{8}$",
    "limit": 10,
    "formatExample": "803 123 4567",
    "formatPattern": "### ### ####"
  },
  {
    "id": "EG",
    "name": "Egipto",
    "flag": "游쀯릖",
    "code": "EG",
    "dial_code": "+20",
    "regex": "^(10|11|12|15)[0-9]{8}$",
    "limit": 10,
    "formatExample": "010 1234 5678",
    "formatPattern": "### #### ####"
  },
  {
    "id": "TR",
    "name": "Turqu칤a",
    "flag": "游좷릖",
    "code": "TR",
    "dial_code": "+90",
    "regex": "^5[0-9]{9}$",
    "limit": 10,
    "formatExample": "530 123 4567",
    "formatPattern": "### ### ####"
  },
  {
    "id": "ID",
    "name": "Indonesia",
    "flag": "游쉻릖",
    "code": "ID",
    "dial_code": "+62",
    "regex": "^8[1-9][0-9]{6,9}$",
    "limit": 11,
    "formatExample": "812 3456 7890",
    "formatPattern": "### #### ####"
  },
  {
    "id": "PH",
    "name": "Filipinas",
    "flag": "游왫릖",
    "code": "PH",
    "dial_code": "+63",
    "regex": "^9[0-9]{9}$",
    "limit": 10,
    "formatExample": "912 345 6789",
    "formatPattern": "### ### ####"
  },
  {
    "id": "TH",
    "name": "Tailandia",
    "flag": "游좷릖",
    "code": "TH",
    "dial_code": "+66",
    "regex": "^([689])[0-9]{8}$",
    "limit": 9,
    "formatExample": "812 345 678",
    "formatPattern": "### ### ###"
  },
  {
    "id": "MY",
    "name": "Malasia",
    "flag": "游쓇릖",
    "code": "MY",
    "dial_code": "+60",
    "regex": "^(1)[0-9]{8,9}$",
    "limit": 10,
    "formatExample": "123 456 7890",
    "formatPattern": "### ### ####"
  },
  {
    "id": "SG",
    "name": "Singapur",
    "flag": "游젏릖",
    "code": "SG",
    "dial_code": "+65",
    "regex": "^[689][0-9]{7}$",
    "limit": 8,
    "formatExample": "9123 4567",
    "formatPattern": "#### ####"
  },
  {
    "id": "NZ",
    "name": "Nueva Zelanda",
    "flag": "游游",
    "code": "NZ",
    "dial_code": "+64",
    "regex": "^(2)[0-9]{7,9}$",
    "limit": 9,
    "formatExample": "21 123 4567",
    "formatPattern": "## ### ####"
  },
  {
    "id": "BE",
    "name": "B칠lgica",
    "flag": "游游",
    "code": "BE",
    "dial_code": "+32",
    "regex": "^4[0-9]{8}$",
    "limit": 9,
    "formatExample": "470 123 456",
    "formatPattern": "### ### ###"
  },
  {
    "id": "SE",
    "name": "Suecia",
    "flag": "游젏릖",
    "code": "SE",
    "dial_code": "+46",
    "regex": "^7[02369][0-9]{7}$",
    "limit": 9,
    "formatExample": "701 234 567",
    "formatPattern": "### ### ###"
  },
  {
    "id": "CH",
    "name": "Suiza",
    "flag": "游뻟릖",
    "code": "CH",
    "dial_code": "+41",
    "regex": "^7[5-9][0-9]{7}$",
    "limit": 9,
    "formatExample": "765 123 456",
    "formatPattern": "### ### ###"
  },
  {
    "id": "AT",
    "name": "Austria",
    "flag": "游뷣릖",
    "code": "AT",
    "dial_code": "+43",
    "regex": "^6[0-9]{8}$",
    "limit": 9,
    "formatExample": "660 123 456",
    "formatPattern": "### ### ###"
  },
  {
    "id": "DK",
    "name": "Dinamarca",
    "flag": "游뾇릖",
    "code": "DK",
    "dial_code": "+45",
    "regex": "^[0-9]{8}$",
    "limit": 8,
    "formatExample": "12 34 56 78",
    "formatPattern": "## ## ## ##"
  },
  {
    "id": "FI",
    "name": "Finlandia",
    "flag": "游游",
    "code": "FI",
    "dial_code": "+358",
    "regex": "^4[0-9]{8}$",
    "limit": 9,
    "formatExample": "412 345 678",
    "formatPattern": "### ### ###"
  },
  {
    "id": "NO",
    "name": "Noruega",
    "flag": "游游",
    "code": "NO",
    "dial_code": "+47",
    "regex": "^[0-9]{8}$",
    "limit": 8,
    "formatExample": "412 345 67",
    "formatPattern": "### ## ##"
  },
  {
    "id": "PL",
    "name": "Polonia",
    "flag": "游왫릖",
    "code": "PL",
    "dial_code": "+48",
    "regex": "^[5-8][0-9]{8}$",
    "limit": 9,
    "formatExample": "512 345 678",
    "formatPattern": "### ### ###"
  },
  {
    "id": "PT",
    "name": "Portugal",
    "flag": "游왫릖",
    "code": "PT",
    "dial_code": "+351",
    "regex": "^[9][0-9]{8}$",
    "limit": 9,
    "formatExample": "912 345 678",
    "formatPattern": "### ### ###"
  },
  {
    "id": "IE",
    "name": "Irlanda",
    "flag": "游쉻릖",
    "code": "IE",
    "dial_code": "+353",
    "regex": "^[8][3-9][0-9]{7}$",
    "limit": 9,
    "formatExample": "871 234 567",
    "formatPattern": "### ### ###"
  },
  {
    "id": "GR",
    "name": "Grecia",
    "flag": "游섫릖",
    "code": "GR",
    "dial_code": "+30",
    "regex": "^[69][0-9]{8}$",
    "limit": 9,
    "formatExample": "691 234 567",
    "formatPattern": "### ### ###"
  },
  {
    "id": "CZ",
    "name": "Chequia",
    "flag": "游뻟릖",
    "code": "CZ",
    "dial_code": "+420",
    "regex": "^6[0-9]{8}$",
    "limit": 9,
    "formatExample": "602 123 456",
    "formatPattern": "### ### ###"
  },
  {
    "id": "HU",
    "name": "Hungr칤a",
    "flag": "游쇓릖",
    "code": "HU",
    "dial_code": "+36",
    "regex": "^7[0-9]{8}$",
    "limit": 9,
    "formatExample": "701 234 567",
    "formatPattern": "### ### ###"
  },
  {
    "id": "RO",
    "name": "Ruman칤a",
    "flag": "游游",
    "code": "RO",
    "dial_code": "+40",
    "regex": "^7[0-9]{8}$",
    "limit": 9,
    "formatExample": "721 234 567",
    "formatPattern": "### ### ###"
  },
  {
    "id": "BG",
    "name": "Bulgaria",
    "flag": "游游",
    "code": "BG",
    "dial_code": "+359",
    "regex": "^8[0-9]{8}$",
    "limit": 9,
    "formatExample": "882 345 678",
    "formatPattern": "### ### ###"
  },
  {
    "id": "UA",
    "name": "Ucrania",
    "flag": "游쥟릖",
    "code": "UA",
    "dial_code": "+380",
    "regex": "^9[0-9]{8}$",
    "limit": 9,
    "formatExample": "931 234 567",
    "formatPattern": "### ### ###"
  },
  {
    "id": "IL",
    "name": "Israel",
    "flag": "游쉻릖",
    "code": "IL",
    "dial_code": "+972",
    "regex": "^5[0-9]{8}$",
    "limit": 9,
    "formatExample": "541 234 567",
    "formatPattern": "### ### ###"
  },
  {
    "id": "SA",
    "name": "Arabia Saudita",
    "flag": "游젏릖",
    "code": "SA",
    "dial_code": "+966",
    "regex": "^5[0-9]{8}$",
    "limit": 9,
    "formatExample": "512 345 678",
    "formatPattern": "### ### ###"
  },
  {
    "id": "AE",
    "name": "Emiratos 츼rabes Unidos",
    "flag": "游뷣릖",
    "code": "AE",
    "dial_code": "+971",
    "regex": "^5[0-9]{8}$",
    "limit": 9,
    "formatExample": "501 234 567",
    "formatPattern": "### ### ###"
  },
  {
    "id": "MA",
    "name": "Marruecos",
    "flag": "游쓇릖",
    "code": "MA",
    "dial_code": "+212",
    "regex": "^6[0-9]{8}$",
    "limit": 9,
    "formatExample": "612 345 678",
    "formatPattern": "### ### ###"
  },
  {
    "id": "TN",
    "name": "T칰nez",
    "flag": "游좷릖",
    "code": "TN",
    "dial_code": "+216",
    "regex": "^2[0-9]{7}$",
    "limit": 8,
    "formatExample": "201 234 56",
    "formatPattern": "### ### ##"
  },
  {
    "id": "DZ",
    "name": "Argelia",
    "flag": "游뾇릖",
    "code": "DZ",
    "dial_code": "+213",
    "regex": "^5[0-9]{8}$",
    "limit": 9,
    "formatExample": "551 234 567",
    "formatPattern": "### ### ###"
  },
  {
    "id": "KE",
    "name": "Kenia",
    "flag": "游썷릖",
    "code": "KE",
    "dial_code": "+254",
    "regex": "^7[0-9]{8}$",
    "limit": 9,
    "formatExample": "712 345 678",
    "formatPattern": "### ### ###"
  },
  {
    "id": "GH",
    "name": "Ghana",
    "flag": "游섫릖",
    "code": "GH",
    "dial_code": "+233",
    "regex": "^2[0-9]{8}$",
    "limit": 9,
    "formatExample": "231 234 567",
    "formatPattern": "### ### ###"
  },
  {
    "id": "ET",
    "name": "Etiop칤a",
    "flag": "游쀯릖",
    "code": "ET",
    "dial_code": "+251",
    "regex": "^9[0-9]{8}$",
    "limit": 9,
    "formatExample": "911 234 567",
    "formatPattern": "### ### ###"
  },
  {
    "id": "PK",
    "name": "Pakist치n",
    "flag": "游왫릖",
    "code": "PK",
    "dial_code": "+92",
    "regex": "^3[0-9]{9}$",
    "limit": 10,
    "formatExample": "312 345 6789",
    "formatPattern": "### ### ####"
  },
  {
    "id": "CO",
    "name": "Colombia",
    "flag": "游뻟릖",
    "code": "CO",
    "dial_code": "+57",
    "regex": "^3[0-9]{9}$",
    "limit": 10,
    "formatExample": "312 345 6789",
    "formatPattern": "### ### ####"
  },
  {
    "id": "EC",
    "name": "Ecuador",
    "flag": "游쀯릖",
    "code": "EC",
    "dial_code": "+593",
    "regex": "^9[0-9]{8}$",
    "limit": 9,
    "formatExample": "991 234 567",
    "formatPattern": "### ### ###"
  },
  {
    "id": "BO",
    "name": "Bolivia",
    "flag": "游游",
    "code": "BO",
    "dial_code": "+591",
    "regex": "^[67][0-9]{7}$",
    "limit": 8,
    "formatExample": "712 34567",
    "formatPattern": "### #####"
  },
  {
    "id": "PY",
    "name": "Paraguay",
    "flag": "游왫릖",
    "code": "PY",
    "dial_code": "+595",
    "regex": "^9[0-9]{8}$",
    "limit": 9,
    "formatExample": "981 234 567",
    "formatPattern": "### ### ###"
  },
  {
    "id": "VE",
    "name": "Venezuela",
    "flag": "游游",
    "code": "VE",
    "dial_code": "+58",
    "regex": "^4(1[2-6]|24|26)[0-9]{7}$",
    "limit": 10,
    "formatExample": "412 345 6789",
    "formatPattern": "### ### ####"
  },
  {
    "id": "CL",
    "name": "Chile",
    "flag": "游뻟릖",
    "code": "CL",
    "dial_code": "+56",
    "regex": "^9[0-9]{8}$",
    "limit": 9,
    "formatExample": "912 345 678",
    "formatPattern": "### ### ###"
  },
  {
    "id": "SR",
    "name": "Surinam",
    "flag": "游젏릖",
    "code": "SR",
    "dial_code": "+597",
    "regex": "^7[0-9]{6}$",
    "limit": 7,
    "formatExample": "741 2345",
    "formatPattern": "### ####"
  },
  {
    "id": "GY",
    "name": "Guyana",
    "flag": "游섫릖",
    "code": "GY",
    "dial_code": "+592",
    "regex": "^6[0-9]{6}$",
    "limit": 7,
    "formatExample": "612 3456",
    "formatPattern": "### ####"
  },
  {
    "id": "CA",
    "name": "Canad치",
    "flag": "游뻟릖",
    "code": "CA",
    "dial_code": "+1",
    "regex": "^[2-9][0-9]{2}[2-9][0-9]{6}$",
    "limit": 10,
    "formatExample": "416 123 4567",
    "formatPattern": "### ### ####"
  },
  {
    "id": "CR",
    "name": "Costa Rica",
    "flag": "游뻟릖",
    "code": "CR",
    "dial_code": "+506",
    "regex": "^[67][0-9]{7}$",
    "limit": 8,
    "formatExample": "6123 4567",
    "formatPattern": "#### ####"
  },
  {
    "id": "PA",
    "name": "Panam치",
    "flag": "游왫릖",
    "code": "PA",
    "dial_code": "+507",
    "regex": "^[6][0-9]{7}$",
    "limit": 8,
    "formatExample": "6123 4567",
    "formatPattern": "#### ####"
  },
  {
    "id": "HN",
    "name": "Honduras",
    "flag": "游쇓릖",
    "code": "HN",
    "dial_code": "+504",
    "regex": "^[9][0-9]{7}$",
    "limit": 8,
    "formatExample": "9123 4567",
    "formatPattern": "#### ####"
  },
  {
    "id": "SV",
    "name": "El Salvador",
    "flag": "游젏릖",
    "code": "SV",
    "dial_code": "+503",
    "regex": "^[6-7][0-9]{7}$",
    "limit": 8,
    "formatExample": "7123 4567",
    "formatPattern": "#### ####"
  },
  {
    "id": "GT",
    "name": "Guatemala",
    "flag": "游섫릖",
    "code": "GT",
    "dial_code": "+502",
    "regex": "^[3-5][0-9]{7}$",
    "limit": 8,
    "formatExample": "3123 4567",
    "formatPattern": "#### ####"
  },
  {
    "id": "NI",
    "name": "Nicaragua",
    "flag": "游游",
    "code": "NI",
    "dial_code": "+505",
    "regex": "^8[0-9]{7}$",
    "limit": 8,
    "formatExample": "8123 4567",
    "formatPattern": "#### ####"
  },
  {
    "id": "CU",
    "name": "Cuba",
    "flag": "游뻟릖",
    "code": "CU",
    "dial_code": "+53",
    "regex": "^5[0-9]{7}$",
    "limit": 8,
    "formatExample": "5212 3456",
    "formatPattern": "#### ####"
  },
  {
    "id": "DO",
    "name": "Rep칰blica Dominicana",
    "flag": "游뾇릖",
    "code": "DO",
    "dial_code": "+1",
    "regex": "^[8][0-9]{9}$",
    "limit": 10,
    "formatExample": "829 123 4567",
    "formatPattern": "### ### ####"
  },
  {
    "id": "HT",
    "name": "Hait칤",
    "flag": "游쇓릖",
    "code": "HT",
    "dial_code": "+509",
    "regex": "^3[0-9]{7}$",
    "limit": 8,
    "formatExample": "3123 4567",
    "formatPattern": "#### ####"
  },
  {
    "id": "JM",
    "name": "Jamaica",
    "flag": "游游",
    "code": "JM",
    "dial_code": "+1",
    "regex": "^[8][0-9]{9}$",
    "limit": 10,
    "formatExample": "876 123 4567",
    "formatPattern": "### ### ####"
  },
  {
    "id": "TT",
    "name": "Trinidad y Tobago",
    "flag": "游좷릖",
    "code": "TT",
    "dial_code": "+1",
    "regex": "^[8][0-9]{9}$",
    "limit": 10,
    "formatExample": "868 123 4567",
    "formatPattern": "### ### ####"
  },
  {
    "id": "BB",
    "name": "Barbados",
    "flag": "游游",
    "code": "BB",
    "dial_code": "+1",
    "regex": "^[2][0-9]{9}$",
    "limit": 10,
    "formatExample": "246 123 4567",
    "formatPattern": "### ### ####"
  },
  {
    "id": "CN",
    "name": "China",
    "flag": "游뻟릖",
    "code": "CN",
    "dial_code": "+86",
    "regex": "^(1[3-9])[0-9]{9}$",
    "limit": 11,
    "formatExample": "138 1234 5678",
    "formatPattern": "### #### ####"
  },
  {
    "id": "JP",
    "name": "Jap칩n",
    "flag": "游游",
    "code": "JP",
    "dial_code": "+81",
    "regex": "^(70|80|90)[0-9]{8}$",
    "limit": 10,
    "formatExample": "090 1234 5678",
    "formatPattern": "### #### ####"
  },
  {
    "id": "VN",
    "name": "Vietnam",
    "flag": "游游",
    "code": "VN",
    "dial_code": "+84",
    "regex": "^((3[2-9])|(5[6|8|9])|(7[0|6-9])|(8[1-6|8|9])|(9[0-4|6-9]))[0-9]{7}$",
    "limit": 10,
    "formatExample": "912 345 678",
    "formatPattern": "### ### ###"
  },
  {
    "id": "BD",
    "name": "Bangladesh",
    "flag": "游游",
    "code": "BD",
    "dial_code": "+880",
    "regex": "^1[3-9][0-9]{8}$",
    "limit": 10,
    "formatExample": "171 234 5678",
    "formatPattern": "### ### ####"
  },
  {
    "id": "NP",
    "name": "Nepal",
    "flag": "游游",
    "code": "NP",
    "dial_code": "+977",
    "regex": "^9[7-8][0-9]{8}$",
    "limit": 10,
    "formatExample": "981 234 5678",
    "formatPattern": "### ### ####"
  },
  {
    "id": "SD",
    "name": "Sud치n",
    "flag": "游젏릖",
    "code": "SD",
    "dial_code": "+249",
    "regex": "^9[0-9]{8}$",
    "limit": 9,
    "formatExample": "912 345 678",
    "formatPattern": "### ### ###"
  },
  {
    "id": "TZ",
    "name": "Tanzania",
    "flag": "游좷릖",
    "code": "TZ",
    "dial_code": "+255",
    "regex": "^6[0-9]{8}$",
    "limit": 9,
    "formatExample": "612 345 678",
    "formatPattern": "### ### ###"
  },
  {
    "id": "UG",
    "name": "Uganda",
    "flag": "游쥟릖",
    "code": "UG",
    "dial_code": "+256",
    "regex": "^7[0-9]{8}$",
    "limit": 9,
    "formatExample": "712 345 678",
    "formatPattern": "### ### ###"
  },
  {
    "id": "MZ",
    "name": "Mozambique",
    "flag": "游쓇릖",
    "code": "MZ",
    "dial_code": "+258",
    "regex": "^(82|83)[0-9]{7}$",
    "limit": 9,
    "formatExample": "823 456 789",
    "formatPattern": "### ### ###"
  },
  {
    "id": "ZW",
    "name": "Zimbabue",
    "flag": "游游",
    "code": "ZW",
    "dial_code": "+263",
    "regex": "^7[7-9][0-9]{7}$",
    "limit": 9,
    "formatExample": "771 234 567",
    "formatPattern": "### ### ###"
  },
  {
    "id": "FJ",
    "name": "Fiyi",
    "flag": "游游",
    "code": "FJ",
    "dial_code": "+679",
    "regex": "^[2-9][0-9]{6}$",
    "limit": 7,
    "formatExample": "912 3456",
    "formatPattern": "### ####"
  },
  {
    "id": "PG",
    "name": "Pap칰a Nueva Guinea",
    "flag": "游왫릖",
    "code": "PG",
    "dial_code": "+675",
    "regex": "^(7[0-9]{7})$",
    "limit": 8,
    "formatExample": "7123 4567",
    "formatPattern": "#### ####"
  },
  {
    "id": "SB",
    "name": "Islas Salom칩n",
    "flag": "游젏릖",
    "code": "SB",
    "dial_code": "+677",
    "regex": "^[78][0-9]{6}$",
    "limit": 7,
    "formatExample": "781 2345",
    "formatPattern": "### ####"
  },
  {
    "id": "RS",
    "name": "Serbia",
    "flag": "游游",
    "code": "RS",
    "dial_code": "+381",
    "regex": "^6[0-9]{7,8}$",
    "limit": 9,
    "formatExample": "612 345678",
    "formatPattern": "### ######"
  },
  {
    "id": "HR",
    "name": "Croacia",
    "flag": "游쇓릖",
    "code": "HR",
    "dial_code": "+385",
    "regex": "^9[0-9]{8}$",
    "limit": 9,
    "formatExample": "912 345 678",
    "formatPattern": "### ### ###"
  },
  {
    "id": "SI",
    "name": "Eslovenia",
    "flag": "游젏릖",
    "code": "SI",
    "dial_code": "+386",
    "regex": "^3[0-9]{7}$",
    "limit": 8,
    "formatExample": "312 34567",
    "formatPattern": "### #####"
  },
  {
    "id": "BA",
    "name": "Bosnia y Herzegovina",
    "flag": "游游",
    "code": "BA",
    "dial_code": "+387",
    "regex": "^6[0-9]{7}$",
    "limit": 8,
    "formatExample": "612 34567",
    "formatPattern": "### #####"
  },
  {
    "id": "MK",
    "name": "Macedonia del Norte",
    "flag": "游쓇릖",
    "code": "MK",
    "dial_code": "+389",
    "regex": "^7[0-9]{7}$",
    "limit": 8,
    "formatExample": "712 34567",
    "formatPattern": "### #####"
  },
  {
    "id": "IR",
    "name": "Ir치n",
    "flag": "游쉻릖",
    "code": "IR",
    "dial_code": "+98",
    "regex": "^9[0-9]{9}$",
    "limit": 10,
    "formatExample": "912 345 6789",
    "formatPattern": "### ### ####"
  },
  {
    "id": "KZ",
    "name": "Kazajist치n",
    "flag": "游썷릖",
    "code": "KZ",
    "dial_code": "+7",
    "regex": "^7[0-9]{9}$",
    "limit": 10,
    "formatExample": "701 234 5678",
    "formatPattern": "### ### ####"
  },
  {
    "id": "MV",
    "name": "Maldivas",
    "flag": "游쓇릖",
    "code": "MV",
    "dial_code": "+960",
    "regex": "^[7][0-9]{6}$",
    "limit": 7,
    "formatExample": "771 2345",
    "formatPattern": "### ####"
  },
  {
    "id": "WS",
    "name": "Samoa",
    "flag": "游쩛릖",
    "code": "WS",
    "dial_code": "+685",
    "regex": "^[2-9][0-9]{4,6}$",
    "limit": 7,
    "formatExample": "7212345",
    "formatPattern": "#######"
  },
  {
    "id": "TO",
    "name": "Tonga",
    "flag": "游좷릖",
    "code": "TO",
    "dial_code": "+676",
    "regex": "^[2-9][0-9]{4,5}$",
    "limit": 6,
    "formatExample": "201234",
    "formatPattern": "######"
  },
  {
    "id": "VU",
    "name": "Vanuatu",
    "flag": "游游",
    "code": "VU",
    "dial_code": "+678",
    "regex": "^[2-9][0-9]{5}$",
    "limit": 6,
    "formatExample": "221234",
    "formatPattern": "######"
  },
  {
    "id": "KI",
    "name": "Kiribati",
    "flag": "游썷릖",
    "code": "KI",
    "dial_code": "+686",
    "regex": "^[2-9][0-9]{4,5}$",
    "limit": 6,
    "formatExample": "31234",
    "formatPattern": "#####"
  },
  {
    "id": "TV",
    "name": "Tuvalu",
    "flag": "游좷릖",
    "code": "TV",
    "dial_code": "+688",
    "regex": "^[2-9][0-9]{4,5}$",
    "limit": 6,
    "formatExample": "90123",
    "formatPattern": "#####"
  },
  {
    "id": "NR",
    "name": "Nauru",
    "flag": "游游",
    "code": "NR",
    "dial_code": "+674",
    "regex": "^[2-9][0-9]{4}$",
    "limit": 5,
    "formatExample": "55678",
    "formatPattern": "#####"
  },
  {
    "id": "FM",
    "name": "Micronesia",
    "flag": "游游",
    "code": "FM",
    "dial_code": "+691",
    "regex": "^[3-9][0-9]{4,6}$",
    "limit": 7,
    "formatExample": "3551234",
    "formatPattern": "#######"
  },
  {
    "id": "MH",
    "name": "Islas Marshall",
    "flag": "游쓇릖",
    "code": "MH",
    "dial_code": "+692",
    "regex": "^[2-9][0-9]{6}$",
    "limit": 7,
    "formatExample": "2351234",
    "formatPattern": "#######"
  },
  {
    "id": "PW",
    "name": "Palau",
    "flag": "游왫릖",
    "code": "PW",
    "dial_code": "+680",
    "regex": "^[2-9][0-9]{6}$",
    "limit": 7,
    "formatExample": "3456789",
    "formatPattern": "#######"
  },
  {
    "id": "TL",
    "name": "Timor Oriental",
    "flag": "游좷릖",
    "code": "TL",
    "dial_code": "+670",
    "regex": "^[7][0-9]{7}$",
    "limit": 8,
    "formatExample": "77234567",
    "formatPattern": "########"
  },
  {
    "id": "CD",
    "name": "Rep칰blica Democr치tica del Congo",
    "flag": "游뻟릖",
    "code": "CD",
    "dial_code": "+243",
    "regex": "^8[0-9]{8}$",
    "limit": 9,
    "formatExample": "812345678",
    "formatPattern": "#########"
  },
  {
    "id": "CG",
    "name": "Rep칰blica del Congo",
    "flag": "游뻟릖",
    "code": "CG",
    "dial_code": "+242",
    "regex": "^0[1-9][0-9]{7}$",
    "limit": 9,
    "formatExample": "061234567",
    "formatPattern": "#########"
  },
  {
    "id": "GA",
    "name": "Gab칩n",
    "flag": "游섫릖",
    "code": "GA",
    "dial_code": "+241",
    "regex": "^0[1-7][0-9]{6}$",
    "limit": 9,
    "formatExample": "061234567",
    "formatPattern": "#########"
  },
  {
    "id": "NA",
    "name": "Namibia",
    "flag": "游游",
    "code": "NA",
    "dial_code": "+264",
    "regex": "^8[1-9][0-9]{6}$",
    "limit": 8,
    "formatExample": "81123456",
    "formatPattern": "########"
  },
  {
    "id": "AO",
    "name": "Angola",
    "flag": "游뷣릖",
    "code": "AO",
    "dial_code": "+244",
    "regex": "^9[0-9]{8}$",
    "limit": 9,
    "formatExample": "923456789",
    "formatPattern": "#########"
  },
  {
    "id": "TD",
    "name": "Chad",
    "flag": "游좷릖",
    "code": "TD",
    "dial_code": "+235",
    "regex": "^6[0-9]{7}$",
    "limit": 8,
    "formatExample": "61234567",
    "formatPattern": "########"
  },
  {
    "id": "CF",
    "name": "Rep칰blica Centroafricana",
    "flag": "游뻟릖",
    "code": "CF",
    "dial_code": "+236",
    "regex": "^7[0-9]{7}$",
    "limit": 8,
    "formatExample": "70123456",
    "formatPattern": "########"
  },
  {
    "id": "NE",
    "name": "N칤ger",
    "flag": "游游",
    "code": "NE",
    "dial_code": "+227",
    "regex": "^9[0-9]{7}$",
    "limit": 8,
    "formatExample": "93123456",
    "formatPattern": "########"
  },
  {
    "id": "BF",
    "name": "Burkina Faso",
    "flag": "游游",
    "code": "BF",
    "dial_code": "+226",
    "regex": "^7[0-9]{7}$",
    "limit": 8,
    "formatExample": "73123456",
    "formatPattern": "########"
  },
  {
    "id": "ML",
    "name": "Mali",
    "flag": "游쓇릖",
    "code": "ML",
    "dial_code": "+223",
    "regex": "^6[0-9]{7}$",
    "limit": 8,
    "formatExample": "61234567",
    "formatPattern": "########"
  },
  {
    "id": "TJ",
    "name": "Tayikist치n",
    "flag": "游좷릖",
    "code": "TJ",
    "dial_code": "+992",
    "regex": "^9[0-9]{8}$",
    "limit": 9,
    "formatExample": "917654321",
    "formatPattern": "#########"
  },
  {
    "id": "TM",
    "name": "Turkmenist치n",
    "flag": "游좷릖",
    "code": "TM",
    "dial_code": "+993",
    "regex": "^6[0-9]{7}$",
    "limit": 8,
    "formatExample": "65123456",
    "formatPattern": "########"
  },
  {
    "id": "KG",
    "name": "Kirguist치n",
    "flag": "游썷릖",
    "code": "KG",
    "dial_code": "+996",
    "regex": "^7[0-9]{8}$",
    "limit": 9,
    "formatExample": "701234567",
    "formatPattern": "#########"
  },
  {
    "id": "BT",
    "name": "But치n",
    "flag": "游游",
    "code": "BT",
    "dial_code": "+975",
    "regex": "^(17|77)[0-9]{6}$",
    "limit": 8,
    "formatExample": "77123456",
    "formatPattern": "########"
  },
  {
    "id": "BN",
    "name": "Brun칠i",
    "flag": "游游",
    "code": "BN",
    "dial_code": "+673",
    "regex": "^[2-9][0-9]{6}$",
    "limit": 7,
    "formatExample": "7123456",
    "formatPattern": "#######"
  },
  {
    "id": "AD",
    "name": "Andorra",
    "flag": "游뷣릖",
    "code": "AD",
    "dial_code": "+376",
    "regex": "^[3-6][0-9]{5}$",
    "limit": 6,
    "formatExample": "321234",
    "formatPattern": "######"
  },
  {
    "id": "LI",
    "name": "Liechtenstein",
    "flag": "游쐟릖",
    "code": "LI",
    "dial_code": "+423",
    "regex": "^6[0-9]{6}$",
    "limit": 7,
    "formatExample": "6123456",
    "formatPattern": "#######"
  },
  {
    "id": "MC",
    "name": "M칩naco",
    "flag": "游쓇릖",
    "code": "MC",
    "dial_code": "+377",
    "regex": "^6[0-9]{7}$",
    "limit": 8,
    "formatExample": "61234567",
    "formatPattern": "########"
  },
  {
    "id": "SM",
    "name": "San Marino",
    "flag": "游젏릖",
    "code": "SM",
    "dial_code": "+378",
    "regex": "^6[0-9]{6}$",
    "limit": 7,
    "formatExample": "6123456",
    "formatPattern": "#######"
  },
  {
    "id": "VA",
    "name": "Ciudad del Vaticano",
    "flag": "游游",
    "code": "VA",
    "dial_code": "+379",
    "regex": "^3[0-9]{5}$",
    "limit": 6,
    "formatExample": "312345",
    "formatPattern": "######"
  }
]
